{"type": "FeatureCollection", "features": [ {"type": "Feature", "properties": {"norad_id": 41549, "name": "GSAT0211 (GALILEO 14)", "group": "gnss", "lat": 10.669332297339508, "lon": -125.3738679333439, "alt_km": 23209.618106925554, "timestamp": "2025-12-02T21:34:01.514299+00:00", "meta": {"OBJECT_NAME": "GSAT0211 (GALILEO 14)", "OBJECT_ID": "2016-030A", "EPOCH": "2025-12-01T16:54:04.942368", "MEAN_MOTION": 1.70472896, "ECCENTRICITY": 0.00038995, "INCLINATION": 55.1563, "RA_OF_ASC_NODE": 227.1275, "ARG_OF_PERICENTER": 10.5053, "MEAN_ANOMALY": 349.5828, "EPHEMERIS_TYPE": 0, "CLASSIFICATION_TYPE": "U", "NORAD_CAT_ID": 41549, "ELEMENT_SET_NO": 999, "REV_AT_EPOCH": 5930, "BSTAR": 0, "MEAN_MOTION_DOT": 3.3e-07, "MEAN_MOTION_DDOT": 0}, "tle": {"line1": "1 41549U 16030A   25335.70422387  .00000033  00000+0  00000+0 0  9998", "line2": "2 41549  55.1563 227.1275 0003899  10.5053 349.5828  1.70472896 59309"}}, "geometry": {"type": "Point", "coordinates": [-125.3738679333439, 10.669332297339508]}}, {"type": "Feature", "properties": {"norad_id": 41550, "name": "GSAT0210 (GALILEO 13)", "group": "gnss", "lat": -28.13252045526467, "lon": 68.92830797517107, "alt_km": 23222.658910988564, "timestamp": "2025-12-02T21:34:01.514322+00:00", "meta": {"OBJECT_NAME": "GSAT0210 (GALILEO 13)", "OBJECT_ID": "2016-030B", "EPOCH": "2025-12-01T09:00:06.320160", "MEAN_MOTION": 1.70473417, "ECCENTRICITY": 0.00012162, "INCLINATION": 55.1557, "RA_OF_ASC_NODE": 227.1346, "ARG_OF_PERICENTER": 241.6156, "MEAN_ANOMALY": 118.4503, "EPHEMERIS_TYPE": 0, "CLASSIFICATION_TYPE": "U", "NORAD_CAT_ID": 41550, "ELEMENT_SET_NO": 999, "REV_AT_EPOCH": 5929, "BSTAR": 0, "MEAN_MOTION_DOT": 3.2e-07, "MEAN_MOTION_DDOT": 0}, "tle": {"line1": "1 41550U 16030B   25335.37507315  .00000032  00000+0  00000+0 0  9997", "line2": "2 41550  55.1557 227.1346 0001216 241.6156 118.4503  1.70473417 59296"}}, "geometry": {"type": "Point", "coordinates": [68.92830797517107, -28.13252045526467]}}, {"type": "Feature", "properties": {"norad_id": 41586, "name": "BEIDOU-2 G7 (C03)", "group": "gnss", "lat": 1.6911593227240818, "lon": 146.00767431427445, "alt_km": 35780.24456026418, "timestamp": "2025-12-02T21:34:01.514340+00:00", "meta": {"OBJECT_NAME": "BEIDOU-2 G7 (C03)", "OBJECT_ID": "2016-037A", "EPOCH": "2025-12-02T07:27:38.871648", "MEAN_MOTION": 1.00272255, "ECCENTRICITY": 0.0004462, "INCLINATION": 1.7294, "RA_OF_ASC_NODE": 67.6752, "ARG_OF_PERICENTER": 5.5089, "MEAN_ANOMALY": 220.6295, "EPHEMERIS_TYPE": 0, "CLASSIFICATION_TYPE": "U", "NORAD_CAT_ID": 41586, "ELEMENT_SET_NO": 999, "REV_AT_EPOCH": 491, "BSTAR": 0, "MEAN_MOTION_DOT": -3.33e-06, "MEAN_MOTION_DDOT": 0}, "tle": {"line1": "1 41586U 16037A   25336.31086657 -.00000333  00000+0  00000+0 0  9994", "line2": "2 41586   1.7294  67.6752 0004462   5.5089 220.6295  1.00272255  4919"}}, "geometry": {"type": "Point", "coordinates": [146.00767431427445, 1.6911593227240818]}}, {"type": "Feature", "properties": {"norad_id": 41589, "name": "EUTELSAT 117 WEST B (WAAS/PRN 131)", "group": "gnss", "lat": 0.008630977806953252, "lon": -81.52711641787982, "alt_km": 35786.92393355939, "timestamp": "2025-12-02T21:34:01.514355+00:00", "meta": {"OBJECT_NAME": "EUTELSAT 117 WEST B (WAAS/PRN 131)", "OBJECT_ID": "2016-038B", "EPOCH": "2025-12-02T10:37:38.766720", "MEAN_MOTION": 1.0026853, "ECCENTRICITY": 2.02e-05, "INCLINATION": 0.0102, "RA_OF_ASC_NODE": 144.9746, "ARG_OF_PERICENTER": 219.6495, "MEAN_ANOMALY": 109.3395, "EPHEMERIS_TYPE": 0, "CLASSIFICATION_TYPE": "U", "NORAD_CAT_ID": 41589, "ELEMENT_SET_NO": 999, "REV_AT_EPOCH": 3469, "BSTAR": 0, "MEAN_MOTION_DOT": 9e-08, "MEAN_MOTION_DDOT": 0}, "tle": {"line1": "1 41589U 16038B   25336.44280980  .00000009  00000+0  00000+0 0  9996", "line2": "2 41589   0.0102 144.9746 0000202 219.6495 109.3395  1.00268530 34694"}}, "geometry": {"type": "Point", "coordinates": [-81.52711641787982, 0.008630977806953252]}}, {"type": "Feature", "properties": {"norad_id": 41859, "name": "GSAT0207 (GALILEO 15)", "group": "gnss", "lat": 35.04808777189207, "lon": 135.47576457434144, "alt_km": 23216.6680251575, "timestamp": "2025-12-02T21:34:01.514367+00:00", "meta": {"OBJECT_NAME": "GSAT0207 (GALILEO 15)", "OBJECT_ID": "2016-069A", "EPOCH": "2025-11-30T11:31:32.297952", "MEAN_MOTION": 1.70474248, "ECCENTRICITY": 0.00020596, "INCLINATION": 55.375, "RA_OF_ASC_NODE": 106.5899, "ARG_OF_PERICENTER": 325.7449, "MEAN_ANOMALY": 34.2162, "EPHEMERIS_TYPE": 0, "CLASSIFICATION_TYPE": "U", "NORAD_CAT_ID": 41859, "ELEMENT_SET_NO": 999, "REV_AT_EPOCH": 5601, "BSTAR": 0, "MEAN_MOTION_DOT": 4.7e-07, "MEAN_MOTION_DDOT": 0}, "tle": {"line1": "1 41859U 16069A   25334.48023493  .00000047  00000+0  00000+0 0  9998", "line2": "2 41859  55.3750 106.5899 0002059 325.7449  34.2162  1.70474248 56019"}}, "geometry": {"type": "Point", "coordinates": [135.47576457434144, 35.04808777189207]}}, {"type": "Feature", "properties": {"norad_id": 41860, "name": "GSAT0212 (GALILEO 16)", "group": "gnss", "lat": 36.203267376813336, "lon": -103.86955571611263, "alt_km": 23218.777229789044, "timestamp": "2025-12-02T21:34:01.514378+00:00", "meta": {"OBJECT_NAME": "GSAT0212 (GALILEO 16)", "OBJECT_ID": "2016-069B", "EPOCH": "2025-12-01T12:10:10.642368", "MEAN_MOTION": 1.70474441, "ECCENTRICITY": 0.00022648, "INCLINATION": 55.3731, "RA_OF_ASC_NODE": 106.5568, "ARG_OF_PERICENTER": 35.1599, "MEAN_ANOMALY": 324.8229, "EPHEMERIS_TYPE": 0, "CLASSIFICATION_TYPE": "U", "NORAD_CAT_ID": 41860, "ELEMENT_SET_NO": 999, "REV_AT_EPOCH": 5628, "BSTAR": 0, "MEAN_MOTION_DOT": 3.8e-07, "MEAN_MOTION_DDOT": 0}, "tle": {"line1": "1 41860U 16069B   25335.50706762  .00000038  00000+0  00000+0 0  9991", "line2": "2 41860  55.3731 106.5568 0002264  35.1599 324.8229  1.70474441 56285"}}, "geometry": {"type": "Point", "coordinates": [-103.86955571611263, 36.203267376813336]}}, {"type": "Feature", "properties": {"norad_id": 41861, "name": "GSAT0213 (GALILEO 17)", "group": "gnss", "lat": -55.34135563648134, "lon": 13.777109232316946, "alt_km": 23222.145635765963, "timestamp": "2025-12-02T21:34:01.514389+00:00", "meta": {"OBJECT_NAME": "GSAT0213 (GALILEO 17)", "OBJECT_ID": "2016-069C", "EPOCH": "2025-12-01T20:59:28.954752", "MEAN_MOTION": 1.70474717, "ECCENTRICITY": 0.00020626, "INCLINATION": 55.3756, "RA_OF_ASC_NODE": 106.5542, "ARG_OF_PERICENTER": 284.0381, "MEAN_ANOMALY": 75.9044, "EPHEMERIS_TYPE": 0, "CLASSIFICATION_TYPE": "U", "NORAD_CAT_ID": 41861, "ELEMENT_SET_NO": 999, "REV_AT_EPOCH": 5615, "BSTAR": 0, "MEAN_MOTION_DOT": 3.5e-07, "MEAN_MOTION_DDOT": 0}, "tle": {"line1": "1 41861U 16069C   25335.87464068  .00000035  00000+0  00000+0 0  9999", "line2": "2 41861  55.3756 106.5542 0002062 284.0381  75.9044  1.70474717 56156"}}, "geometry": {"type": "Point", "coordinates": [13.777109232316946, -55.34135563648134]}}, {"type": "Feature", "properties": {"norad_id": 41862, "name": "GSAT0214 (GALILEO 18)", "group": "gnss", "lat": 0.9225352724443867, "lon": -74.13949769925128, "alt_km": 23223.460882976793, "timestamp": "2025-12-02T21:34:01.514400+00:00", "meta": {"OBJECT_NAME": "GSAT0214 (GALILEO 18)", "OBJECT_ID": "2016-069D", "EPOCH": "2025-11-29T16:11:01.864032", "MEAN_MOTION": 1.70474561, "ECCENTRICITY": 0.00010374, "INCLINATION": 55.3728, "RA_OF_ASC_NODE": 106.6081, "ARG_OF_PERICENTER": 291.61, "MEAN_ANOMALY": 68.3572, "EPHEMERIS_TYPE": 0, "CLASSIFICATION_TYPE": "U", "NORAD_CAT_ID": 41862, "ELEMENT_SET_NO": 999, "REV_AT_EPOCH": 5624, "BSTAR": 0, "MEAN_MOTION_DOT": 5.1e-07, "MEAN_MOTION_DDOT": 0}, "tle": {"line1": "1 41862U 16069D   25333.67432713  .00000051  00000+0  00000+0 0  9996", "line2": "2 41862  55.3728 106.6081 0001037 291.6100  68.3572  1.70474561 56248"}}, "geometry": {"type": "Point", "coordinates": [-74.13949769925128, 0.9225352724443867]}}, {"type": "Feature", "properties": {"norad_id": 42709, "name": "SES-15 (WAAS/PRN 133)", "group": "gnss", "lat": -0.03772657919459927, "lon": -93.71239373495979, "alt_km": 35785.519421211, "timestamp": "2025-12-02T21:34:01.514414+00:00", "meta": {"OBJECT_NAME": "SES-15 (WAAS/PRN 133)", "OBJECT_ID": "2017-026A", "EPOCH": "2025-12-02T10:45:38.709216", "MEAN_MOTION": 1.00268451, "ECCENTRICITY": 3.54e-05, "INCLINATION": 0.02, "RA_OF_ASC_NODE": 343.1092, "ARG_OF_PERICENTER": 271.331, "MEAN_ANOMALY": 209.3403, "EPHEMERIS_TYPE": 0, "CLASSIFICATION_TYPE": "U", "NORAD_CAT_ID": 42709, "ELEMENT_SET_NO": 999, "REV_AT_EPOCH": 546, "BSTAR": 0, "MEAN_MOTION_DOT": 8.1e-07, "MEAN_MOTION_DDOT": 0}, "tle": {"line1": "1 42709U 17026A   25336.44836469  .00000081  00000+0  00000+0 0  9998", "line2": "2 42709   0.0200 343.1092 0000354 271.3310 209.3403  1.00268451  5460"}}, "geometry": {"type": "Point", "coordinates": [-93.71239373495979, -0.03772657919459927]}}, {"type": "Feature", "properties": {"norad_id": 42738, "name": "QZS-2 (QZSS/PRN 194)", "group": "gnss", "lat": -35.67572701786643, "lon": -173.56761810140526, "alt_km": 32851.36248671374, "timestamp": "2025-12-02T21:34:01.514426+00:00", "meta": {"OBJECT_NAME": "QZS-2 (QZSS/PRN 194)", "OBJECT_ID": "2017-028A", "EPOCH": "2025-11-29T15:03:38.649888", "MEAN_MOTION": 1.0028652, "ECCENTRICITY": 0.07597264, "INCLINATION": 39.7358, "RA_OF_ASC_NODE": 246.0747, "ARG_OF_PERICENTER": 269.3342, "MEAN_ANOMALY": 280.5316, "EPHEMERIS_TYPE": 0, "CLASSIFICATION_TYPE": "U", "NORAD_CAT_ID": 42738, "ELEMENT_SET_NO": 999, "REV_AT_EPOCH": 562, "BSTAR": 0, "MEAN_MOTION_DOT": -1.6e-06, "MEAN_MOTION_DDOT": 0}, "tle": {"line1": "1 42738U 17028A   25333.62753067 -.00000160  00000+0  00000+0 0  9990", "line2": "2 42738  39.7358 246.0747 0759726 269.3342 280.5316  1.00286520  5628"}}, "geometry": {"type": "Point", "coordinates": [-173.56761810140526, -35.67572701786643]}}]}